[{"OBJECT_NAME":"KUIPER-00103","OBJECT_ID":"2025-171K","EPOCH":"2026-03-09T11:52:55.185888","MEAN_MOTION":14.799441,"ECCENTRICITY":0.00014863,"INCLINATION":51.8976,"RA_OF_ASC_NODE":171.4297,"ARG_OF_PERICENTER":136.3523,"MEAN_ANOMALY":223.7557,"EPHEMERIS_TYPE":0,"CLASSIFICATION_TYPE":"U","NORAD_CAT_ID":65141,"ELEMENT_SET_NO":999,"REV_AT_EPOCH":3268,"BSTAR":0.0006573061,"MEAN_MOTION_DOT":4.794e-5,"MEAN_MOTION_DDOT":0},{"OBJECT_NAME":"DELTA 1 DEB","OBJECT_ID":"1977-065EC","EPOCH":"2026-03-09T02:08:40.996032","MEAN_MOTION":13.78682297,"ECCENTRICITY":0.05923881,"INCLINATION":29.1022,"RA_OF_ASC_NODE":69.0593,"ARG_OF_PERICENTER":230.0658,"MEAN_ANOMALY":124.6392,"EPHEMERIS_TYPE":0,"CLASSIFICATION_TYPE":"U","NORAD_CAT_ID":10470,"ELEMENT_SET_NO":999,"REV_AT_EPOCH":39795,"BSTAR":0.00059129389,"MEAN_MOTION_DOT":2.469e-5,"MEAN_MOTION_DDOT":0}]
